{
  "norad_id": 66313,
  "name": "YAOGAN-46",
  "history": [
    {
      "epoch": "2026-05-03T18:10:29.933760Z",
      "apogee_km": 7502.316916006867,
      "perigee_km": 7491.072752288473,
      "latitude_deg": -2.1454758162698294e-05,
      "longitude_deg": -129.14943023590433,
      "height_km": 7493.791035729878,
      "semi_major_axis_km": 13874.83183414767,
      "eccentricity": 0.0004052,
      "inclination_deg": 20.0892,
      "raan_deg": 5.1342,
      "arg_perigee_deg": 72.5473,
      "mean_anomaly_deg": 287.5131,
      "mean_motion_rev_day": 5.31203796
    },
    {
      "epoch": "2026-05-04T07:43:16.277952Z",
      "apogee_km": 7502.322638915449,
      "perigee_km": 7491.066820423072,
      "latitude_deg": 1.1502519485690892e-05,
      "longitude_deg": 26.75343761721169,
      "height_km": 7493.864251872009,
      "semi_major_axis_km": 13874.83172966926,
      "eccentricity": 0.00040562,
      "inclination_deg": 20.0892,
      "raan_deg": 4.7862,
      "arg_perigee_deg": 73.3456,
      "mean_anomaly_deg": 286.7155,
      "mean_motion_rev_day": 5.31203802
    },
    {
      "epoch": "2026-05-05T06:17:53.544192Z",
      "apogee_km": 7502.3377456747685,
      "perigee_km": 7491.051957446708,
      "latitude_deg": -1.8402778655819036e-06,
      "longitude_deg": 46.59136202351676,
      "height_km": 7493.98551940391,
      "semi_major_axis_km": 13874.831851560737,
      "eccentricity": 0.0004067,
      "inclination_deg": 20.0893,
      "raan_deg": 4.2063,
      "arg_perigee_deg": 74.6681,
      "mean_anomaly_deg": 285.394,
      "mean_motion_rev_day": 5.31203795
    },
    {
      "epoch": "2026-05-06T04:52:30.777600Z",
      "apogee_km": 7502.355763696817,
      "perigee_km": 7491.033068771284,
      "latitude_deg": 2.0763491043585728e-05,
      "longitude_deg": 66.42949436797764,
      "height_km": 7494.1150707932475,
      "semi_major_axis_km": 13874.83141623405,
      "eccentricity": 0.00040803,
      "inclination_deg": 20.0894,
      "raan_deg": 3.6264,
      "arg_perigee_deg": 76.0764,
      "mean_anomaly_deg": 283.9868,
      "mean_motion_rev_day": 5.3120382
    },
    {
      "epoch": "2026-05-07T03:27:08.055072Z",
      "apogee_km": 7502.371114951976,
      "perigee_km": 7491.018727474039,
      "latitude_deg": -1.0348615593694699e-05,
      "longitude_deg": 86.26733193422452,
      "height_km": 7494.23708079377,
      "semi_major_axis_km": 13874.831921213008,
      "eccentricity": 0.0004091,
      "inclination_deg": 20.0894,
      "raan_deg": 3.0466,
      "arg_perigee_deg": 77.3712,
      "mean_anomaly_deg": 282.6928,
      "mean_motion_rev_day": 5.31203791
    },
    {
      "epoch": "2026-05-08T02:01:45.289344Z",
      "apogee_km": 7502.381226159075,
      "perigee_km": 7491.008581440806,
      "latitude_deg": 1.5201451359467157e-05,
      "longitude_deg": 106.10520948284548,
      "height_km": 7494.3623507995035,
      "semi_major_axis_km": 13874.83190379994,
      "eccentricity": 0.00040983,
      "inclination_deg": 20.0895,
      "raan_deg": 2.4666,
      "arg_perigee_deg": 78.6829,
      "mean_anomaly_deg": 281.3819,
      "mean_motion_rev_day": 5.31203792
    },
    {
      "epoch": "2026-05-10T17:14:41.527680Z",
      "apogee_km": 7502.429563448705,
      "perigee_km": 7490.9606272386945,
      "latitude_deg": 1.1073337813919979e-05,
      "longitude_deg": -126.34909597427308,
      "height_km": 7494.732524275105,
      "semi_major_axis_km": 13874.8320953437,
      "eccentricity": 0.0004133,
      "inclination_deg": 20.0897,
      "raan_deg": 0.843,
      "arg_perigee_deg": 82.528,
      "mean_anomaly_deg": 277.5381,
      "mean_motion_rev_day": 5.31203781
    },
    {
      "epoch": "2026-05-11T11:18:23.300064Z",
      "apogee_km": 7502.443473121367,
      "perigee_km": 7490.946787218308,
      "latitude_deg": 4.490568003569685e-06,
      "longitude_deg": -38.478938548077075,
      "height_km": 7494.840318397102,
      "semi_major_axis_km": 13874.832130169836,
      "eccentricity": 0.0004143,
      "inclination_deg": 20.0898,
      "raan_deg": 0.3792,
      "arg_perigee_deg": 83.6303,
      "mean_anomaly_deg": 276.4359,
      "mean_motion_rev_day": 5.31203779
    },
    {
      "epoch": "2026-05-12T18:54:51.473664Z",
      "apogee_km": 7502.461673327208,
      "perigee_km": 7490.931686539186,
      "latitude_deg": -2.2019993026387946e-06,
      "longitude_deg": -154.7066766198443,
      "height_km": 7495.0252838441165,
      "semi_major_axis_km": 13874.833679933197,
      "eccentricity": 0.0004155,
      "inclination_deg": 20.0899,
      "raan_deg": 359.5674,
      "arg_perigee_deg": 85.4848,
      "mean_anomaly_deg": 274.5813,
      "mean_motion_rev_day": 5.3120369
    },
    {
      "epoch": "2026-05-13T17:29:28.688928Z",
      "apogee_km": 7502.485452168195,
      "perigee_km": 7490.908290785835,
      "latitude_deg": 2.312470186960029e-05,
      "longitude_deg": -134.8690804728637,
      "height_km": 7495.159676064057,
      "semi_major_axis_km": 13874.833871477014,
      "eccentricity": 0.0004172,
      "inclination_deg": 20.0899,
      "raan_deg": 358.9875,
      "arg_perigee_deg": 86.8385,
      "mean_anomaly_deg": 273.2276,
      "mean_motion_rev_day": 5.31203679
    },
    {
      "epoch": "2026-05-13T17:29:28.689792Z",
      "apogee_km": 7502.484897174841,
      "perigee_km": 7490.908845779189,
      "latitude_deg": 2.4699749690681955e-05,
      "longitude_deg": -134.86907978883482,
      "height_km": 7495.159707207988,
      "semi_major_axis_km": 13874.833871477014,
      "eccentricity": 0.00041716,
      "inclination_deg": 20.0899,
      "raan_deg": 358.9875,
      "arg_perigee_deg": 86.8385,
      "mean_anomaly_deg": 273.2276,
      "mean_motion_rev_day": 5.31203679
    },
    {
      "epoch": "2026-05-15T01:05:56.758848Z",
      "apogee_km": 7502.504529142919,
      "perigee_km": 7490.888795897331,
      "latitude_deg": -2.195566812900921e-05,
      "longitude_deg": 108.90366245225658,
      "height_km": 7495.347456929888,
      "semi_major_axis_km": 13874.833662520125,
      "eccentricity": 0.00041859,
      "inclination_deg": 20.09,
      "raan_deg": 358.1757,
      "arg_perigee_deg": 88.7085,
      "mean_anomaly_deg": 271.3572,
      "mean_motion_rev_day": 5.31203691
    }
  ]
}